start=new Date('2022-10-28T00:00:00.000Z').valueOf();
sats=[{"DECAY_DATE":null,"LAUNCH_DATE":"2022-05-06","TIME_SYSTEM":"UTC","GP_ID":"216336776","MEAN_MOTION":"15.08853069","CENTER_NAME":"EARTH","EPOCH":"2022-10-27T20:01:32.109888","MEAN_ANOMALY":"305.3767","BSTAR":"0.00044831000000","MEAN_MOTION_DOT":"0.00006857","FILE":"3636022","TLE_LINE2":"2 52471  53.2151 175.6648 0001816  54.7394 305.3767 15.08853069 26737","OBJECT_ID":"2022-049W","MEAN_MOTION_DDOT":"0.0000000000000","ELEMENT_SET_NO":"999","CLASSIFICATION_TYPE":"U","REV_AT_EPOCH":"2673","ARG_OF_PERICENTER":"54.7394","ECCENTRICITY":"0.00018160","REF_FRAME":"TEME","PERIOD":"95.437","EPHEMERIS_TYPE":"0","SEMIMAJOR_AXIS":"6917.840","RCS_SIZE":"LARGE","TLE_LINE1":"1 52471U 22049W   22300.83439942  .00006857  00000-0  44831-3 0  9994","INCLINATION":"53.2151","COUNTRY_CODE":"US","APOAPSIS":"540.962","PERIAPSIS":"538.449","MEAN_ELEMENT_THEORY":"SGP4","RA_OF_ASC_NODE":"175.6648","OBJECT_NAME":"STARLINK-3862","OBJECT_TYPE":"PAYLOAD","SITE":"AFETR","NORAD_CAT_ID":"52471"},{"TIME_SYSTEM":"UTC","GP_ID":"216313514","DECAY_DATE":null,"LAUNCH_DATE":"2022-05-06","EPOCH":"2022-10-27T22:51:04.671360","MEAN_ANOMALY":"312.9101","CENTER_NAME":"EARTH","MEAN_MOTION":"15.08848599","MEAN_MOTION_DDOT":"0.0000000000000","TLE_LINE2":"2 52472  53.2183 175.1392 0001848  47.2047 312.9101 15.08848599 26919","OBJECT_ID":"2022-049X","FILE":"3636006","BSTAR":"0.00010309000000","MEAN_MOTION_DOT":"0.00001353","ECCENTRICITY":"0.00018480","REF_FRAME":"TEME","EPHEMERIS_TYPE":"0","PERIOD":"95.437","ARG_OF_PERICENTER":"47.2047","REV_AT_EPOCH":"2691","CLASSIFICATION_TYPE":"U","ELEMENT_SET_NO":"999","RCS_SIZE":"LARGE","TLE_LINE1":"1 52472U 22049X   22300.95213740  .00001353  00000-0  10309-3 0  9993","SEMIMAJOR_AXIS":"6917.854","APOAPSIS":"540.998","INCLINATION":"53.2183","COUNTRY_CODE":"US","NORAD_CAT_ID":"52472","SITE":"AFETR","OBJECT_TYPE":"PAYLOAD","OBJECT_NAME":"STARLINK-3881","PERIAPSIS":"538.441","MEAN_ELEMENT_THEORY":"SGP4","RA_OF_ASC_NODE":"175.1392"},{"DECAY_DATE":null,"LAUNCH_DATE":"2022-05-06","GP_ID":"216337774","TIME_SYSTEM":"UTC","MEAN_MOTION":"15.08831339","CENTER_NAME":"EARTH","MEAN_ANOMALY":"305.2222","EPOCH":"2022-10-27T19:50:55.618368","BSTAR":"0.00018833000000","MEAN_MOTION_DOT":"0.00002710","FILE":"3636022","OBJECT_ID":"2022-049Y","TLE_LINE2":"2 52473  53.2177 175.7082 0001594  54.8919 305.2222 15.08831339 26738","MEAN_MOTION_DDOT":"0.0000000000000","CLASSIFICATION_TYPE":"U","ELEMENT_SET_NO":"999","REV_AT_EPOCH":"2673","ARG_OF_PERICENTER":"54.8919","ECCENTRICITY":"0.00015940","REF_FRAME":"TEME","PERIOD":"95.438","EPHEMERIS_TYPE":"0","SEMIMAJOR_AXIS":"6917.907","RCS_SIZE":"LARGE","TLE_LINE1":"1 52473U 22049Y   22300.82703262  .00002710  00000-0  18833-3 0  9991","INCLINATION":"53.2177","COUNTRY_CODE":"US","APOAPSIS":"540.875","PERIAPSIS":"538.669","MEAN_ELEMENT_THEORY":"SGP4","RA_OF_ASC_NODE":"175.7082","OBJECT_NAME":"STARLINK-3879","OBJECT_TYPE":"PAYLOAD","SITE":"AFETR","NORAD_CAT_ID":"52473"},{"INCLINATION":"53.2150","COUNTRY_CODE":"US","APOAPSIS":"540.929","SEMIMAJOR_AXIS":"6917.832","TLE_LINE1":"1 52474U 22049Z   22300.90523707  .00007251  00000-0  47301-3 0  9992","RCS_SIZE":"LARGE","MEAN_ELEMENT_THEORY":"SGP4","PERIAPSIS":"538.466","RA_OF_ASC_NODE":"165.3390","OBJECT_NAME":"STARLINK-3855","OBJECT_TYPE":"PAYLOAD","SITE":"AFETR","NORAD_CAT_ID":"52474","MEAN_MOTION":"15.08855699","CENTER_NAME":"EARTH","MEAN_ANOMALY":"306.4519","EPOCH":"2022-10-27T21:43:32.482848","LAUNCH_DATE":"2022-05-06","DECAY_DATE":null,"GP_ID":"216313516","TIME_SYSTEM":"UTC","REV_AT_EPOCH":"2704","CLASSIFICATION_TYPE":"U","ELEMENT_SET_NO":"999","ARG_OF_PERICENTER":"53.6638","REF_FRAME":"TEME","ECCENTRICITY":"0.00017800","PERIOD":"95.437","EPHEMERIS_TYPE":"0","BSTAR":"0.00047301000000","MEAN_MOTION_DOT":"0.00007251","FILE":"3636006","TLE_LINE2":"2 52474  53.2150 165.3390 0001780  53.6638 306.4519 15.08855699 27041","OBJECT_ID":"2022-049Z","MEAN_MOTION_DDOT":"0.0000000000000"},{"TLE_LINE1":"1 52475U 22049AA  22300.82063379  .00003729  00000-0  25221-3 0  9991","RCS_SIZE":"LARGE","SEMIMAJOR_AXIS":"6917.856","APOAPSIS":"540.809","INCLINATION":"53.2185","COUNTRY_CODE":"US","SITE":"AFETR","NORAD_CAT_ID":"52475","OBJECT_TYPE":"PAYLOAD","OBJECT_NAME":"STARLINK-3882","MEAN_ELEMENT_THEORY":"SGP4","PERIAPSIS":"538.633","RA_OF_ASC_NODE":"175.7282","TIME_SYSTEM":"UTC","GP_ID":"216336277","DECAY_DATE":null,"LAUNCH_DATE":"2022-05-06","MEAN_ANOMALY":"295.4848","EPOCH":"2022-10-27T19:41:42.759456","CENTER_NAME":"EARTH","MEAN_MOTION":"15.08848002","MEAN_MOTION_DDOT":"0.0000000000000","OBJECT_ID":"2022-049AA","TLE_LINE2":"2 52475  53.2185 175.7282 0001573  64.6307 295.4848 15.08848002 26737","FILE":"3636022","BSTAR":"0.00025221000000","MEAN_MOTION_DOT":"0.00003729","ECCENTRICITY":"0.00015730","REF_FRAME":"TEME","EPHEMERIS_TYPE":"0","PERIOD":"95.437","ARG_OF_PERICENTER":"64.6307","CLASSIFICATION_TYPE":"U","REV_AT_EPOCH":"2673","ELEMENT_SET_NO":"999"},{"MEAN_MOTION":"15.08866365","MEAN_ANOMALY":"305.3388","EPOCH":"2022-10-27T20:02:51.756864","CENTER_NAME":"EARTH","GP_ID":"216337027","TIME_SYSTEM":"UTC","LAUNCH_DATE":"2022-05-06","DECAY_DATE":null,"ARG_OF_PERICENTER":"54.7790","ELEMENT_SET_NO":"999","CLASSIFICATION_TYPE":"U","REV_AT_EPOCH":"2811","EPHEMERIS_TYPE":"0","PERIOD":"95.436","ECCENTRICITY":"0.00019870","REF_FRAME":"TEME","FILE":"3636022","MEAN_MOTION_DOT":"0.00012858","BSTAR":"0.00082390000000","MEAN_MOTION_DDOT":"0.0000000000000","OBJECT_ID":"2022-049AB","TLE_LINE2":"2 52476  53.2148 165.6525 0001987  54.7790 305.3388 15.08866365 28116","COUNTRY_CODE":"US","INCLINATION":"53.2148","APOAPSIS":"541.039","SEMIMAJOR_AXIS":"6917.800","RCS_SIZE":"LARGE","TLE_LINE1":"1 52476U 22049AB  22300.83532126  .00012858  00000-0  82390-3 0  9997","OBJECT_NAME":"STARLINK-3835","RA_OF_ASC_NODE":"165.6525","PERIAPSIS":"538.290","MEAN_ELEMENT_THEORY":"SGP4","SITE":"AFETR","NORAD_CAT_ID":"52476","OBJECT_TYPE":"PAYLOAD"},{"RA_OF_ASC_NODE":"165.3216","MEAN_ELEMENT_THEORY":"SGP4","PERIAPSIS":"538.220","OBJECT_NAME":"STARLINK-3860","SITE":"AFETR","NORAD_CAT_ID":"52477","OBJECT_TYPE":"PAYLOAD","COUNTRY_CODE":"US","INCLINATION":"53.2149","APOAPSIS":"541.146","SEMIMAJOR_AXIS":"6917.818","RCS_SIZE":"LARGE","TLE_LINE1":"1 52477U 22049AC  22300.90891620  .00007089  00000-0  46282-3 0  9993","REV_AT_EPOCH":"2704","ELEMENT_SET_NO":"999","CLASSIFICATION_TYPE":"U","ARG_OF_PERICENTER":"46.9997","PERIOD":"95.436","EPHEMERIS_TYPE":"0","ECCENTRICITY":"0.00021150","REF_FRAME":"TEME","MEAN_MOTION_DOT":"0.00007089","BSTAR":"0.00046282000000","FILE":"3636006","TLE_LINE2":"2 52477  53.2149 165.3216 0002115  46.9997 313.1172 15.08860367 27043","OBJECT_ID":"2022-049AC","MEAN_MOTION_DDOT":"0.0000000000000","MEAN_MOTION":"15.08860367","CENTER_NAME":"EARTH","MEAN_ANOMALY":"313.1172","EPOCH":"2022-10-27T21:48:50.359680","DECAY_DATE":null,"LAUNCH_DATE":"2022-05-06","GP_ID":"216313379","TIME_SYSTEM":"UTC"},{"ELEMENT_SET_NO":"999","CLASSIFICATION_TYPE":"U","REV_AT_EPOCH":"2691","ARG_OF_PERICENTER":"67.3470","ECCENTRICITY":"0.00020490","REF_FRAME":"TEME","PERIOD":"95.440","EPHEMERIS_TYPE":"0","BSTAR":"-0.00118170000000","MEAN_MOTION_DOT":"-0.00019028","FILE":"3635998","TLE_LINE2":"2 52478  53.2175 175.1734 0002049  67.3470 292.7738 15.08805075 26916","OBJECT_ID":"2022-049AD","MEAN_MOTION_DDOT":"0.0000000000000","MEAN_MOTION":"15.08805075","CENTER_NAME":"EARTH","EPOCH":"2022-10-27T22:40:31.549440","MEAN_ANOMALY":"292.7738","LAUNCH_DATE":"2022-05-06","DECAY_DATE":null,"TIME_SYSTEM":"UTC","GP_ID":"216313168","MEAN_ELEMENT_THEORY":"SGP4","PERIAPSIS":"538.435","RA_OF_ASC_NODE":"175.1734","OBJECT_NAME":"STARLINK-3825","SITE":"AFETR","OBJECT_TYPE":"PAYLOAD","NORAD_CAT_ID":"52478","INCLINATION":"53.2175","COUNTRY_CODE":"US","APOAPSIS":"541.270","SEMIMAJOR_AXIS":"6917.987","TLE_LINE1":"1 52478U 22049AD  22300.94480960 -.00019028  00000-0 -11817-2 0  9992","RCS_SIZE":"LARGE"},{"RCS_SIZE":"LARGE","TLE_LINE1":"1 52479U 22049AE  22300.82794613  .00002767  00000-0  19184-3 0  9999","SEMIMAJOR_AXIS":"6917.853","APOAPSIS":"540.965","INCLINATION":"53.2166","COUNTRY_CODE":"US","SITE":"AFETR","OBJECT_TYPE":"PAYLOAD","NORAD_CAT_ID":"52479","OBJECT_NAME":"STARLINK-3878","MEAN_ELEMENT_THEORY":"SGP4","PERIAPSIS":"538.471","RA_OF_ASC_NODE":"165.6850","TIME_SYSTEM":"UTC","GP_ID":"216336777","DECAY_DATE":null,"LAUNCH_DATE":"2022-05-06","EPOCH":"2022-10-27T19:52:14.545632","MEAN_ANOMALY":"298.1703","CENTER_NAME":"EARTH","MEAN_MOTION":"15.08849018","MEAN_MOTION_DDOT":"0.0000000000000","TLE_LINE2":"2 52479  53.2166 165.6850 0001803  61.9472 298.1703 15.08849018 28110","OBJECT_ID":"2022-049AE","FILE":"3636022","BSTAR":"0.00019184000000","MEAN_MOTION_DOT":"0.00002767","REF_FRAME":"TEME","ECCENTRICITY":"0.00018030","PERIOD":"95.437","EPHEMERIS_TYPE":"0","ARG_OF_PERICENTER":"61.9472","CLASSIFICATION_TYPE":"U","ELEMENT_SET_NO":"999","REV_AT_EPOCH":"2811"},{"APOAPSIS":"540.989","INCLINATION":"53.2170","COUNTRY_CODE":"US","TLE_LINE1":"1 52480U 22049AF  22300.80863697  .00011994  00000-0  76978-3 0  9994","RCS_SIZE":"LARGE","SEMIMAJOR_AXIS":"6917.794","NORAD_CAT_ID":"52480","SITE":"AFETR","OBJECT_TYPE":"PAYLOAD","OBJECT_NAME":"STARLINK-3839","MEAN_ELEMENT_THEORY":"SGP4","PERIAPSIS":"538.329","RA_OF_ASC_NODE":"175.7801","MEAN_ANOMALY":"299.3520","EPOCH":"2022-10-27T19:24:26.234208","CENTER_NAME":"EARTH","MEAN_MOTION":"15.08868232","TIME_SYSTEM":"UTC","GP_ID":"216336528","DECAY_DATE":null,"LAUNCH_DATE":"2022-05-06","REF_FRAME":"TEME","ECCENTRICITY":"0.00019220","EPHEMERIS_TYPE":"0","PERIOD":"95.436","ARG_OF_PERICENTER":"60.7664","ELEMENT_SET_NO":"999","CLASSIFICATION_TYPE":"U","REV_AT_EPOCH":"2673","MEAN_MOTION_DDOT":"0.0000000000000","OBJECT_ID":"2022-049AF","TLE_LINE2":"2 52480  53.2170 175.7801 0001922  60.7664 299.3520 15.08868232 26732","FILE":"3636022","BSTAR":"0.00076978000000","MEAN_MOTION_DOT":"0.00011994"}];
